NORAD_CAT_ID,OBJECT_NAME,OBJECT_TYPE,EPOCH,MEAN_MOTION,ECCENTRICITY,INCLINATION,RA_OF_ASC_NODE,ARG_OF_PERICENTER,MEAN_ANOMALY,BSTAR,MEAN_MOTION_DOT,MEAN_MOTION_DDOT,TLE_LINE0,TLE_LINE1,TLE_LINE2,SEMIMAJOR_AXIS,PERIOD,APOGEE,PERIGEE,DECAYED
55662.0,STARLINK-5479,PAYLOAD,2024-08-03 05:34:40,14.98331387,0.0003381,69.9994,195.755,267.4449,92.6323,4.701e-05,4.68e-06,0.0,0 STARLINK-5479,1 55662U 23021AL  24216.23240977  .00000468  00000-0  47010-4 0  9995,2 55662  69.9994 195.7550 0003381 267.4449  92.6323 14.98331387 81589,6950.189,96.107,574.403,569.704,0.0
55662.0,STARLINK-5479,PAYLOAD,2024-08-03 08:46:56,14.98331927,0.000338,69.9994,195.4183,267.518,92.5592,5.1263e-05,5.19e-06,0.0,0 STARLINK-5479,1 55662U 23021AL  24216.36592924  .00000519  00000-0  51263-4 0  9993,2 55662  69.9994 195.4183 0003380 267.5180  92.5592 14.98331927 81903,6950.187,96.107,574.401,569.703,0.0
55662.0,STARLINK-5479,PAYLOAD,2024-08-04 05:36:40,14.98336312,0.0003364,69.9994,193.2304,267.4753,92.6021,8.8285e-05,9.61e-06,0.0,0 STARLINK-5479,1 55662U 23021AL  24217.23380483  .00000961  00000-0  88285-4 0  9990,2 55662  69.9994 193.2304 0003364 267.4753  92.6021 14.98336312 81733,6950.173,96.107,574.376,569.7,0.0
55662.0,STARLINK-5479,PAYLOAD,2024-08-04 07:12:48,14.98336868,0.0003348,69.9995,193.062,267.5353,92.5423,9.422e-05,1.032e-05,0.0,0 STARLINK-5479,1 55662U 23021AL  24217.30056415  .00001032  00000-0  94220-4 0  9999,2 55662  69.9995 193.0620 0003348 267.5353  92.5423 14.98336868 82048,6950.172,96.107,574.364,569.71,0.0
55662.0,STARLINK-5479,PAYLOAD,2024-08-04 21:38:01,14.98331438,0.0003219,69.9997,191.5472,269.1821,90.8969,4.9446e-05,4.97e-06,0.0,0 STARLINK-5479,1 55662U 23021AL  24217.90140834  .00000497  00000-0  49446-4 0  9998,2 55662  69.9997 191.5472 0003219 269.1821  90.8969 14.98331438 81833,6950.188,96.107,574.291,569.816,0.0
55662.0,STARLINK-5479,PAYLOAD,2024-08-04 23:14:09,14.98331659,0.000322,69.9997,191.3789,269.1335,90.9455,4.9881e-05,5.02e-06,0.0,0 STARLINK-5479,1 55662U 23021AL  24217.96816807  .00000502  00000-0  49881-4 0  9994,2 55662  69.9997 191.3789 0003220 269.1335  90.9455 14.98331659 82145,6950.188,96.107,574.291,569.815,0.0
55662.0,STARLINK-5479,PAYLOAD,2024-08-05 15:15:30,14.98358388,0.0002694,70.0015,189.6952,279.5719,80.5135,-0.00064348,-7.768e-05,0.0,0 STARLINK-5479,1 55662U 23021AL  24218.63576536 -.00007768  00000-0 -64348-3 0  9998,2 55662  70.0015 189.6952 0002694 279.5719  80.5135 14.98358388 81941,6950.105,96.105,573.842,570.098,0.0
55662.0,STARLINK-5479,PAYLOAD,2024-08-05 23:16:11,14.98322162,0.0002675,70.0019,188.8595,255.1153,104.971,-6.8561e-05,-9.11e-06,0.0,0 STARLINK-5479,1 55662U 23021AL  24218.96957806 -.00000911  00000-0 -68561-4 0  9992,2 55662  70.0019 188.8595 0002675 255.1153 104.9710 14.98322162 82290,6950.217,96.108,573.941,570.223,0.0
55662.0,STARLINK-5479,PAYLOAD,2024-08-06 05:40:44,14.98316493,0.0002897,70.0008,188.1828,268.9601,91.1226,-0.00015251,-1.912e-05,0.0,0 STARLINK-5479,1 55662U 23021AL  24219.23662562 -.00001912  00000-0 -15251-3 0  9994,2 55662  70.0008 188.1828 0002897 268.9601  91.1226 14.98316493 82037,6950.235,96.108,574.113,570.086,0.0
55662.0,STARLINK-5479,PAYLOAD,2024-08-06 07:16:52,14.9831668,0.0002878,70.0008,188.0146,268.836,91.2469,-0.00014738,-1.85e-05,0.0,0 STARLINK-5479,1 55662U 23021AL  24219.30338599 -.00001850  00000-0 -14738-3 0  9992,2 55662  70.0008 188.0146 0002878 268.8360  91.2469 14.98316680 82341,6950.234,96.108,574.099,570.099,0.0
55662.0,STARLINK-5479,PAYLOAD,2024-08-07 04:06:36,14.98328865,0.0003278,70.0003,185.826,273.9696,86.1088,5.4054e-05,5.52e-06,0.0,0 STARLINK-5479,1 55662U 23021AL  24220.17125608  .00000552  00000-0  54054-4 0  9996,2 55662  70.0003 185.8260 0003278 273.9696  86.1088 14.98328865 82171,6950.196,96.107,574.34,569.783,0.0
55662.0,STARLINK-5479,PAYLOAD,2024-08-07 05:42:44,14.98331331,0.0003249,70.0001,185.6575,273.1818,86.897,8.4869e-05,9.2e-06,0.0,0 STARLINK-5479,1 55662U 23021AL  24220.23801374  .00000920  00000-0  84869-4 0  9990,2 55662  70.0001 185.6575 0003249 273.1818  86.8970 14.98331331 82485,6950.189,96.107,574.312,569.796,0.0
55662.0,STARLINK-5479,PAYLOAD,2024-08-08 07:20:50,14.9836097,0.0003108,69.9997,182.9633,265.5936,94.4868,0.00055035,6.485e-05,0.0,0 STARLINK-5479,1 55662U 23021AL  24221.30614156  .00006485  00000-0  55035-3 0  9993,2 55662  69.9997 182.9633 0003108 265.5936  94.4868 14.98360970 82641,6950.097,96.105,574.122,569.802,0.0
55662.0,STARLINK-5479,PAYLOAD,2024-08-08 21:46:05,14.98338062,0.0002947,69.9997,181.4494,273.6703,86.4119,7.1385e-05,7.59e-06,0.0,0 STARLINK-5479,1 55662U 23021AL  24221.90700405  .00000759  00000-0  71385-4 0  9997,2 55662  69.9997 181.4494 0002947 273.6703  86.4119 14.98338062 82436,6950.168,96.106,574.081,569.985,0.0
55662.0,STARLINK-5479,PAYLOAD,2024-08-09 05:46:46,14.9832799,0.0003101,69.9999,180.6071,274.4494,85.6311,-9.4902e-05,-1.225e-05,0.0,0 STARLINK-5479,1 55662U 23021AL  24222.24081389 -.00001225  00000-0 -94902-4 0  9999,2 55662  69.9999 180.6071 0003101 274.4494  85.6311 14.98327990 82487,6950.199,96.107,574.219,569.909,0.0
55662.0,STARLINK-5479,PAYLOAD,2024-08-09 07:22:54,14.98329063,0.0002976,70.0003,180.4386,273.3023,86.7795,-6.0026e-05,-8.09e-06,0.0,0 STARLINK-5479,1 55662U 23021AL  24222.30757216 -.00000809  00000-0 -60026-4 0  9992,2 55662  70.0003 180.4386 0002976 273.3023  86.7795 14.98329063 82793,6950.196,96.107,574.129,569.992,0.0
55662.0,STARLINK-5479,PAYLOAD,2024-08-09 20:11:58,14.98345002,0.0002854,70.0005,179.0921,274.9561,85.1273,-0.00032399,-3.958e-05,0.0,0 STARLINK-5479,1 55662U 23021AL  24222.84165092 -.00003958  00000-0 -32399-3 0  9995,2 55662  70.0005 179.0921 0002854 274.9561  85.1273 14.98345002 82574,6950.146,96.106,573.995,570.028,0.0
55662.0,STARLINK-5479,PAYLOAD,2024-08-09 21:48:06,14.98346323,0.0002896,70.0005,178.9239,275.2194,84.8634,-0.00033826,-4.128e-05,0.0,0 STARLINK-5479,1 55662U 23021AL  24222.90840944 -.00004128  00000-0 -33826-3 0  9994,2 55662  70.0005 178.9239 0002896 275.2194  84.8634 14.98346323 82884,6950.142,96.106,574.02,569.995,0.0
55662.0,STARLINK-5479,PAYLOAD,2024-08-10 07:24:54,14.98348663,0.0002327,70.0016,177.9144,265.9162,94.1731,-0.00023242,-2.866e-05,0.0,0 STARLINK-5479,1 55662U 23021AL  24223.30896115 -.00002866  00000-0 -23242-3 0  9998,2 55662  70.0016 177.9144 0002327 265.9162  94.1731 14.98348663 82645,6950.135,96.106,573.617,570.383,0.0
55662.0,STARLINK-5479,PAYLOAD,2024-08-10 21:50:07,14.98331722,0.0002285,70.0018,176.3998,262.0854,98.0046,2.2324e-05,1.74e-06,0.0,0 STARLINK-5479,1 55662U 23021AL  24223.90980524  .00000174  00000-0  22324-4 0  9991,2 55662  70.0018 176.3998 0002285 262.0854  98.0046 14.98331722 82736,6950.188,96.107,573.641,570.464,0.0
55662.0,STARLINK-5479,PAYLOAD,2024-08-11 02:38:31,14.98320217,0.0002287,70.0016,175.8948,260.579,99.511,0.00017559,2.002e-05,0.0,0 STARLINK-5479,1 55662U 23021AL  24224.11008937  .00002002  00000-0  17559-3 0  9999,2 55662  70.0016 175.8948 0002287 260.5790  99.5110 14.98320217 82765,6950.223,96.108,573.678,570.499,0.0
55662.0,STARLINK-5479,PAYLOAD,2024-08-11 07:26:55,14.9832933,0.0002704,70.0008,175.3892,271.839,88.2459,0.00026739,3.099e-05,0.0,0 STARLINK-5479,1 55662U 23021AL  24224.31036351  .00003099  00000-0  26739-3 0  9999,2 55662  70.0008 175.3892 0002704 271.8390  88.2459 14.98329330 82793,6950.195,96.107,573.939,570.181,0.0
55662.0,STARLINK-5479,PAYLOAD,2024-08-11 21:52:07,14.98338135,0.0002541,70.0009,173.8741,269.8261,90.2607,0.00019944,2.288e-05,0.0,0 STARLINK-5479,1 55662U 23021AL  24224.91119948  .00002288  00000-0  19944-3 0  9998,2 55662  70.0009 173.8741 0002541 269.8261  90.2607 14.98338135 83188,6950.168,96.106,573.799,570.267,0.0
55662.0,STARLINK-5479,PAYLOAD,2024-08-12 04:16:39,14.98344373,0.0002427,70.0007,173.2008,261.5687,98.5197,0.00024849,2.874e-05,0.0,0 STARLINK-5479,1 55662U 23021AL  24225.17823249  .00002874  00000-0  24849-3 0  9994,2 55662  70.0007 173.2008 0002427 261.5687  98.5197 14.98344373 82927,6950.148,96.106,573.7,570.327,0.0
55662.0,STARLINK-5479,PAYLOAD,2024-08-12 07:28:54,14.98353441,0.0002337,70.0016,172.8646,260.1603,99.9292,0.00034984,4.086e-05,0.0,0 STARLINK-5479,1 55662U 23021AL  24225.31174362  .00004086  00000-0  34984-3 0  9993,2 55662  70.0016 172.8646 0002337 260.1603  99.9292 14.98353441 82942,6950.12,96.105,573.61,570.361,0.0
55662.0,STARLINK-5479,PAYLOAD,2024-08-12 21:54:07,14.98345045,0.0002651,70.0004,171.3488,241.6342,118.455,0.00020146,2.313e-05,0.0,0 STARLINK-5479,1 55662U 23021AL  24225.91258933  .00002313  00000-0  20146-3 0  9992,2 55662  70.0004 171.3488 0002651 241.6342 118.4550 14.98345045 83339,6950.146,96.106,573.854,570.169,0.0
55662.0,STARLINK-5479,PAYLOAD,2024-08-13 04:18:40,14.98338459,0.00029,70.0013,170.6754,261.7252,98.3579,7.5134e-05,8.04e-06,0.0,0 STARLINK-5479,1 55662U 23021AL  24226.17963171  .00000804  00000-0  75134-4 0  9999,2 55662  70.0013 170.6754 0002900 261.7252  98.3579 14.98338459 83076,6950.167,96.106,574.047,570.016,0.0
55662.0,STARLINK-5479,PAYLOAD,2024-08-13 13:55:29,14.98317035,0.0002752,70.002,169.666,279.153,80.9317,-0.00038347,-4.664e-05,0.0,0 STARLINK-5479,1 55662U 23021AL  24226.58020476 -.00004664  00000-0 -38347-3 0  9990,2 55662  70.0020 169.6660 0002752 279.1530  80.9317 14.98317035 83439,6950.233,96.108,574.011,570.185,0.0
55662.0,STARLINK-5479,PAYLOAD,2024-08-13 20:20:03,14.98277549,0.0003116,70.0019,168.9947,273.711,86.3693,-0.0010969,-0.00013139,0.0,0 STARLINK-5479,1 55662U 23021AL  24226.84726788 -.00013139  00000-0 -10969-2 0  9994,2 55662  70.0019 168.9947 0003116 273.7110  86.3693 14.98277549 83179,6950.355,96.11,574.386,570.054,0.0
55662.0,STARLINK-5479,PAYLOAD,2024-08-13 21:56:12,14.98277337,0.000317,70.0018,168.8264,272.9881,87.0915,-0.0010486,-0.00012565,0.0,0 STARLINK-5479,1 55662U 23021AL  24226.91402976 -.00012565  00000-0 -10486-2 0  9998,2 55662  70.0018 168.8264 0003170 272.9881  87.0915 14.98277337 83489,6950.356,96.11,574.424,570.017,0.0
